1 01293U 65016F   25175.47508325  .00000269  00000-0  18897-3 0  9990
2 01293  70.0740  97.0096 0019579 268.0467  91.8403 14.08138250 81725
1 01293U 65016F   25176.18542840  .00000209  00000-0  15431-3 0  9994
2 01293  70.0741  95.4656 0019567 267.2052  92.6821 14.08138593 81822
1  1293U 65016F   25177.46404915  .00000137  00000-0  11163-3 0  9994
2  1293  70.0742  92.6865 0019542 265.7087  94.1792 14.08139249 82596
1 01293U 65016F   25177.81922151  .00000115  00000-0  99307-4 0  9993
2 01293  70.0742  91.9145 0019533 265.2781  94.6100 14.08139389 82059
